{
  "type": "FeatureCollection",
  "features": [
    {
      "type": "Feature",
      "properties": {
        "norad_id": 36744,
        "name": "COMS 1",
        "group": "weather",
        "lat": -3.7219207242178673,
        "lon": 19.055081329230784,
        "alt_km": 35786.75796936888,
        "timestamp": "2025-12-19T10:50:00.834296+00:00",
        "meta_object_name": "COMS 1",
        "meta_object_id": "2010-032A",
        "meta_epoch": "2025-12-18T17:19:41.001312",
        "meta_mean_motion": 1.00273665,
        "meta_eccentricity": 7.115e-05,
        "meta_inclination": 4.3542,
        "meta_ra_of_asc_node": 77.9328,
        "meta_arg_of_pericenter": 199.5374,
        "meta_mean_anomaly": 198.2019,
        "meta_ephemeris_type": 0,
        "meta_classification_type": "U",
        "meta_norad_cat_id": 36744,
        "meta_element_set_no": 999,
        "meta_rev_at_epoch": 4928,
        "meta_bstar": 0,
        "meta_mean_motion_dot": -3.23e-06,
        "meta_mean_motion_ddot": 0,
        "tle_line1": "1 36744U 10032A   25352.72200233 -.00000323  00000+0  00000+0 0  9993",
        "tle_line2": "2 36744   4.3542  77.9328 0000711 199.5374 198.2019  1.00273665 49280"
      },
      "geometry": {
        "type": "Point",
        "coordinates": [
          19.055081329230784,
          -3.7219207242178673
        ]
      }
    },
    {
      "type": "Feature",
      "properties": {
        "norad_id": 37214,
        "name": "FENGYUN 3B",
        "group": "weather",
        "lat": -0.12101531475849897,
        "lon": 33.49492914327454,
        "alt_km": 831.3064812696321,
        "timestamp": "2025-12-19T10:50:00.834309+00:00",
        "meta_object_name": "FENGYUN 3B",
        "meta_object_id": "2010-059A",
        "meta_epoch": "2025-12-18T23:30:17.082432",
        "meta_mean_motion": 14.14791876,
        "meta_eccentricity": 0.00217456,
        "meta_inclination": 98.9905,
        "meta_ra_of_asc_node": 33.0005,
        "meta_arg_of_pericenter": 339.928,
        "meta_mean_anomaly": 137.1243,
        "meta_ephemeris_type": 0,
        "meta_classification_type": "U",
        "meta_norad_cat_id": 37214,
        "meta_element_set_no": 999,
        "meta_rev_at_epoch": 78194,
        "meta_bstar": 0.00013718237,
        "meta_mean_motion_dot": 2.2e-06,
        "meta_mean_motion_ddot": 0,
        "tle_line1": "1 37214U 10059A   25352.97936438  .00000220  00000+0  13718-3 0  9994",
        "tle_line2": "2 37214  98.9905  33.0005 0021745 339.9280 137.1243 14.14791876781941"
      },
      "geometry": {
        "type": "Point",
        "coordinates": [
          33.49492914327454,
          -0.12101531475849897
        ]
      }
    },
    {
      "type": "Feature",
      "properties": {
        "norad_id": 37849,
        "name": "SUOMI NPP",
        "group": "weather",
        "lat": -44.83952440511613,
        "lon": -60.42909309270984,
        "alt_km": 835.1889756426153,
        "timestamp": "2025-12-19T10:50:00.834321+00:00",
        "meta_object_name": "SUOMI NPP",
        "meta_object_id": "2011-061A",
        "meta_epoch": "2025-12-17T23:31:21.474624",
        "meta_mean_motion": 14.19515682,
        "meta_eccentricity": 0.00023932,
        "meta_inclination": 98.7779,
        "meta_ra_of_asc_node": 289.2746,
        "meta_arg_of_pericenter": 111.1248,
        "meta_mean_anomaly": 249.0184,
        "meta_ephemeris_type": 0,
        "meta_classification_type": "U",
        "meta_norad_cat_id": 37849,
        "meta_element_set_no": 999,
        "meta_rev_at_epoch": 73273,
        "meta_bstar": 4.8615036e-05,
        "meta_mean_motion_dot": 5.8e-07,
        "meta_mean_motion_ddot": 0,
        "tle_line1": "1 37849U 11061A   25351.98010966  .00000058  00000+0  48615-4 0  9995",
        "tle_line2": "2 37849  98.7779 289.2746 0002393 111.1248 249.0184 14.19515682732735"
      },
      "geometry": {
        "type": "Point",
        "coordinates": [
          -60.42909309270984,
          -44.83952440511613
        ]
      }
    },
    {
      "type": "Feature",
      "properties": {
        "norad_id": 38552,
        "name": "METEOSAT-10 (MSG-3)",
        "group": "weather",
        "lat": -0.7139271556014215,
        "lon": -108.96121275606254,
        "alt_km": 35784.35399457898,
        "timestamp": "2025-12-19T10:50:00.834334+00:00",
        "meta_object_name": "METEOSAT-10 (MSG-3)",
        "meta_object_id": "2012-035B",
        "meta_epoch": "2025-12-18T20:08:45.252096",
        "meta_mean_motion": 1.00276454,
        "meta_eccentricity": 7.009e-05,
        "meta_inclination": 4.2423,
        "meta_ra_of_asc_node": 61.7076,
        "meta_arg_of_pericenter": 269.9654,
        "meta_mean_anomaly": 58.4753,
        "meta_ephemeris_type": 0,
        "meta_classification_type": "U",
        "meta_norad_cat_id": 38552,
        "meta_element_set_no": 999,
        "meta_rev_at_epoch": 4904,
        "meta_bstar": 0,
        "meta_mean_motion_dot": 1.7e-07,
        "meta_mean_motion_ddot": 0,
        "tle_line1": "1 38552U 12035B   25352.83941264  .00000017  00000+0  00000+0 0  9994",
        "tle_line2": "2 38552   4.2423  61.7076 0000700 269.9654  58.4753  1.00276454 49043"
      },
      "geometry": {
        "type": "Point",
        "coordinates": [
          -108.96121275606254,
          -0.7139271556014215
        ]
      }
    },
    {
      "type": "Feature",
      "properties": {
        "norad_id": 38771,
        "name": "METOP-B",
        "group": "weather",
        "lat": -32.19172228841878,
        "lon": -142.2218705476489,
        "alt_km": 826.344415263593,
        "timestamp": "2025-12-19T10:50:00.834347+00:00",
        "meta_object_name": "METOP-B",
        "meta_object_id": "2012-049A",
        "meta_epoch": "2025-12-18T22:00:40.440672",
        "meta_mean_motion": 14.21410671,
        "meta_eccentricity": 0.00031297,
        "meta_inclination": 98.6791,
        "meta_ra_of_asc_node": 42.771,
        "meta_arg_of_pericenter": 131.1266,
        "meta_mean_anomaly": 229.0181,
        "meta_ephemeris_type": 0,
        "meta_classification_type": "U",
        "meta_norad_cat_id": 38771,
        "meta_element_set_no": 999,
        "meta_rev_at_epoch": 68765,
        "meta_bstar": 7.372755e-05,
        "meta_mean_motion_dot": 1.18e-06,
        "meta_mean_motion_ddot": 0,
        "tle_line1": "1 38771U 12049A   25352.91713473  .00000118  00000+0  73728-4 0  9994",
        "tle_line2": "2 38771  98.6791  42.7710 0003129 131.1266 229.0181 14.21410671687656"
      },
      "geometry": {
        "type": "Point",
        "coordinates": [
          -142.2218705476489,
          -32.19172228841878
        ]
      }
    },
    {
      "type": "Feature",
      "properties": {
        "norad_id": 39216,
        "name": "INSAT-3D",
        "group": "weather",
        "lat": -1.3084087706688883,
        "lon": 20.265890701414566,
        "alt_km": 35790.827381628296,
        "timestamp": "2025-12-19T10:50:00.834360+00:00",
        "meta_object_name": "INSAT-3D",
        "meta_object_id": "2013-038B",
        "meta_epoch": "2025-12-17T17:21:59.330304",
        "meta_mean_motion": 1.00267779,
        "meta_eccentricity": 0.00012009,
        "meta_inclination": 1.4572,
        "meta_ra_of_asc_node": 84.9421,
        "meta_arg_of_pericenter": 166.0293,
        "meta_mean_anomaly": 225.6028,
        "meta_ephemeris_type": 0,
        "meta_classification_type": "U",
        "meta_norad_cat_id": 39216,
        "meta_element_set_no": 999,
        "meta_rev_at_epoch": 4526,
        "meta_bstar": 0,
        "meta_mean_motion_dot": -3.16e-06,
        "meta_mean_motion_ddot": 0,
        "tle_line1": "1 39216U 13038B   25351.72360336 -.00000316  00000+0  00000+0 0  9991",
        "tle_line2": "2 39216   1.4572  84.9421 0001200 166.0293 225.6028  1.00267779 45261"
      },
      "geometry": {
        "type": "Point",
        "coordinates": [
          20.265890701414566,
          -1.3084087706688883
        ]
      }
    },
    {
      "type": "Feature",
      "properties": {
        "norad_id": 39260,
        "name": "FENGYUN 3C",
        "group": "weather",
        "lat": -37.97852843505575,
        "lon": -22.510959125175106,
        "alt_km": 854.9683612623039,
        "timestamp": "2025-12-19T10:50:00.834376+00:00",
        "meta_object_name": "FENGYUN 3C",
        "meta_object_id": "2013-052A",
        "meta_epoch": "2025-12-18T23:08:30.414624",
        "meta_mean_motion": 14.15698278,
        "meta_eccentricity": 0.00146301,
        "meta_inclination": 98.4769,
        "meta_ra_of_asc_node": 330.3398,
        "meta_arg_of_pericenter": 177.8687,
        "meta_mean_anomaly": 182.2553,
        "meta_ephemeris_type": 0,
        "meta_classification_type": "U",
        "meta_norad_cat_id": 39260,
        "meta_element_set_no": 999,
        "meta_rev_at_epoch": 63306,
        "meta_bstar": 6.3829641e-05,
        "meta_mean_motion_dot": 8.4e-07,
        "meta_mean_motion_ddot": 0,
        "tle_line1": "1 39260U 13052A   25352.96424091  .00000084  00000+0  63830-4 0  9998",
        "tle_line2": "2 39260  98.4769 330.3398 0014630 177.8687 182.2553 14.15698278633067"
      },
      "geometry": {
        "type": "Point",
        "coordinates": [
          -22.510959125175106,
          -37.97852843505575
        ]
      }
    }
  ]
}